start=new Date('2022-05-05T00:00:00.000Z').valueOf();
sats=[{"PERIAPSIS":"545.986","SITE":"AFETR","RCS_SIZE":"LARGE","MEAN_MOTION_DOT":"0.00005050","MEAN_MOTION_DDOT":"0.0000000000000","MEAN_ANOMALY":"309.2876","LAUNCH_DATE":"2021-02-16","MEAN_MOTION":"15.06412004","FILE":"3429148","DECAY_DATE":null,"ARG_OF_PERICENTER":"50.8265","GP_ID":"202716117","PERIOD":"95.591","REF_FRAME":"TEME","COUNTRY_CODE":"US","RA_OF_ASC_NODE":"258.1742","ELEMENT_SET_NO":"999","APOAPSIS":"548.367","TLE_LINE2":"2 47652  53.0535 258.1742 0001719  50.8265 309.2876 15.06412004 68248","SEMIMAJOR_AXIS":"6925.312","OBJECT_NAME":"STARLINK-2036","BSTAR":"0.00035755000000","ECCENTRICITY":"0.00017190","CLASSIFICATION_TYPE":"U","INCLINATION":"53.0535","EPOCH":"2022-05-04T20:30:54.996480","TLE_LINE1":"1 47652U 21012AJ  22124.85480320  .00005050  00000-0  35755-3 0  9999","CENTER_NAME":"EARTH","OBJECT_ID":"2021-012AJ","NORAD_CAT_ID":"47652","EPHEMERIS_TYPE":"0","REV_AT_EPOCH":"6824","MEAN_ELEMENT_THEORY":"SGP4","TIME_SYSTEM":"UTC","OBJECT_TYPE":"PAYLOAD"},{"OBJECT_TYPE":"PAYLOAD","TIME_SYSTEM":"UTC","MEAN_ELEMENT_THEORY":"SGP4","REV_AT_EPOCH":"6849","EPHEMERIS_TYPE":"0","NORAD_CAT_ID":"47653","OBJECT_ID":"2021-012AK","CENTER_NAME":"EARTH","EPOCH":"2022-05-04T17:11:51.216000","TLE_LINE1":"1 47653U 21012AK  22124.71656500  .00001624  00000-0  12788-3 0  9994","INCLINATION":"53.0566","CLASSIFICATION_TYPE":"U","ECCENTRICITY":"0.00018190","BSTAR":"0.00012788000000","OBJECT_NAME":"STARLINK-2037","SEMIMAJOR_AXIS":"6925.321","TLE_LINE2":"2 47653  53.0566 238.7793 0001819  59.6151 300.5017 15.06409008 68493","APOAPSIS":"548.446","ELEMENT_SET_NO":"999","RA_OF_ASC_NODE":"238.7793","COUNTRY_CODE":"US","REF_FRAME":"TEME","PERIOD":"95.592","GP_ID":"202715372","ARG_OF_PERICENTER":"59.6151","DECAY_DATE":null,"FILE":"3429148","MEAN_MOTION":"15.06409008","LAUNCH_DATE":"2021-02-16","MEAN_MOTION_DDOT":"0.0000000000000","MEAN_MOTION_DOT":"0.00001624","MEAN_ANOMALY":"300.5017","RCS_SIZE":"LARGE","SITE":"AFETR","PERIAPSIS":"545.926"},{"INCLINATION":"53.0562","EPOCH":"2022-05-04T20:36:13.599936","TLE_LINE1":"1 47654U 21012AL  22124.85849074  .00002495  00000-0  18631-3 0  9990","CENTER_NAME":"EARTH","OBJECT_ID":"2021-012AL","NORAD_CAT_ID":"47654","EPHEMERIS_TYPE":"0","MEAN_ELEMENT_THEORY":"SGP4","REV_AT_EPOCH":"6824","TIME_SYSTEM":"UTC","OBJECT_TYPE":"PAYLOAD","RA_OF_ASC_NODE":"258.1500","ELEMENT_SET_NO":"999","APOAPSIS":"548.392","TLE_LINE2":"2 47654  53.0562 258.1500 0001718  55.2112 304.9039 15.06403812 68241","SEMIMAJOR_AXIS":"6925.337","BSTAR":"0.00018631000000","OBJECT_NAME":"STARLINK-2038","ECCENTRICITY":"0.00017180","CLASSIFICATION_TYPE":"U","FILE":"3429148","DECAY_DATE":null,"GP_ID":"202715622","ARG_OF_PERICENTER":"55.2112","REF_FRAME":"TEME","PERIOD":"95.592","COUNTRY_CODE":"US","PERIAPSIS":"546.012","SITE":"AFETR","RCS_SIZE":"LARGE","MEAN_ANOMALY":"304.9039","MEAN_MOTION_DDOT":"0.0000000000000","MEAN_MOTION_DOT":"0.00002495","LAUNCH_DATE":"2021-02-16","MEAN_MOTION":"15.06403812"},{"COUNTRY_CODE":"US","FILE":"3429148","DECAY_DATE":null,"ARG_OF_PERICENTER":"53.7187","GP_ID":"202715870","PERIOD":"95.592","REF_FRAME":"TEME","MEAN_ANOMALY":"306.3957","MEAN_MOTION_DDOT":"0.0000000000000","MEAN_MOTION_DOT":"0.00002203","LAUNCH_DATE":"2021-02-16","MEAN_MOTION":"15.06399255","PERIAPSIS":"546.051","SITE":"AFETR","RCS_SIZE":"LARGE","EPHEMERIS_TYPE":"0","REV_AT_EPOCH":"6824","MEAN_ELEMENT_THEORY":"SGP4","TIME_SYSTEM":"UTC","OBJECT_TYPE":"PAYLOAD","INCLINATION":"53.0553","TLE_LINE1":"1 47655U 21012AM  22124.85111374  .00002203  00000-0  16676-3 0  9990","EPOCH":"2022-05-04T20:25:36.227136","CENTER_NAME":"EARTH","OBJECT_ID":"2021-012AM","NORAD_CAT_ID":"47655","APOAPSIS":"548.381","TLE_LINE2":"2 47655  53.0553 258.1886 0001682  53.7187 306.3957 15.06399255 68244","SEMIMAJOR_AXIS":"6925.351","BSTAR":"0.00016676000000","OBJECT_NAME":"STARLINK-2039","ECCENTRICITY":"0.00016820","CLASSIFICATION_TYPE":"U","RA_OF_ASC_NODE":"258.1886","ELEMENT_SET_NO":"999"},{"GP_ID":"202687601","ARG_OF_PERICENTER":"38.8131","REF_FRAME":"TEME","PERIOD":"95.592","DECAY_DATE":null,"FILE":"3428858","COUNTRY_CODE":"US","SITE":"AFETR","RCS_SIZE":"LARGE","PERIAPSIS":"545.518","MEAN_MOTION":"15.06399567","MEAN_MOTION_DDOT":"0.0000000000000","MEAN_ANOMALY":"321.3034","MEAN_MOTION_DOT":"0.00003791","LAUNCH_DATE":"2021-02-16","NORAD_CAT_ID":"47656","OBJECT_ID":"2021-012AN","EPOCH":"2022-05-04T17:38:25.249344","TLE_LINE1":"1 47656U 21012AN  22124.73501446  .00003791  00000-0  27331-3 0  9994","CENTER_NAME":"EARTH","INCLINATION":"53.0560","OBJECT_TYPE":"PAYLOAD","REV_AT_EPOCH":"6798","MEAN_ELEMENT_THEORY":"SGP4","TIME_SYSTEM":"UTC","EPHEMERIS_TYPE":"0","ELEMENT_SET_NO":"999","RA_OF_ASC_NODE":"238.7105","CLASSIFICATION_TYPE":"U","ECCENTRICITY":"0.00024500","SEMIMAJOR_AXIS":"6925.350","BSTAR":"0.00027331000000","OBJECT_NAME":"STARLINK-2040","APOAPSIS":"548.912","TLE_LINE2":"2 47656  53.0560 238.7105 0002450  38.8131 321.3034 15.06399567 67987"},{"DECAY_DATE":null,"GP_ID":"202714872","ARG_OF_PERICENTER":"66.1570","REF_FRAME":"TEME","PERIOD":"95.592","FILE":"3429148","COUNTRY_CODE":"US","SITE":"AFETR","RCS_SIZE":"LARGE","PERIAPSIS":"546.170","MEAN_MOTION_DOT":"0.00001666","MEAN_MOTION_DDOT":"0.0000000000000","MEAN_ANOMALY":"293.9572","LAUNCH_DATE":"2021-02-16","MEAN_MOTION":"15.06409529","OBJECT_ID":"2021-012AP","NORAD_CAT_ID":"47657","INCLINATION":"53.0546","EPOCH":"2022-05-04T20:57:26.393760","TLE_LINE1":"1 47657U 21012AP  22124.87322215  .00001666  00000-0  13068-3 0  9996","CENTER_NAME":"EARTH","REV_AT_EPOCH":"6824","MEAN_ELEMENT_THEORY":"SGP4","TIME_SYSTEM":"UTC","OBJECT_TYPE":"PAYLOAD","EPHEMERIS_TYPE":"0","ELEMENT_SET_NO":"999","RA_OF_ASC_NODE":"258.0945","ECCENTRICITY":"0.00014640","CLASSIFICATION_TYPE":"U","APOAPSIS":"548.198","TLE_LINE2":"2 47657  53.0546 258.0945 0001464  66.1570 293.9572 15.06409529 68245","SEMIMAJOR_AXIS":"6925.319","OBJECT_NAME":"STARLINK-2041","BSTAR":"0.00013068000000"},{"COUNTRY_CODE":"US","REF_FRAME":"TEME","PERIOD":"95.594","GP_ID":"202715122","ARG_OF_PERICENTER":"73.9587","DECAY_DATE":null,"FILE":"3429148","MEAN_MOTION":"15.06371111","LAUNCH_DATE":"2021-02-16","MEAN_MOTION_DOT":"0.00018007","MEAN_MOTION_DDOT":"0.0000000000000","MEAN_ANOMALY":"286.1602","RCS_SIZE":"LARGE","SITE":"AFETR","PERIAPSIS":"546.045","OBJECT_TYPE":"PAYLOAD","TIME_SYSTEM":"UTC","REV_AT_EPOCH":"6826","MEAN_ELEMENT_THEORY":"SGP4","EPHEMERIS_TYPE":"0","NORAD_CAT_ID":"47658","OBJECT_ID":"2021-012AQ","CENTER_NAME":"EARTH","TLE_LINE1":"1 47658U 21012AQ  22124.86584613  .00018007  00000-0  12256-2 0  9992","EPOCH":"2022-05-04T20:46:49.105632","INCLINATION":"53.0544","CLASSIFICATION_TYPE":"U","ECCENTRICITY":"0.00018150","BSTAR":"0.00122560000000","OBJECT_NAME":"STARLINK-2042","SEMIMAJOR_AXIS":"6925.437","TLE_LINE2":"2 47658  53.0544 258.1209 0001815  73.9587 286.1602 15.06371111 68267","APOAPSIS":"548.559","ELEMENT_SET_NO":"999","RA_OF_ASC_NODE":"258.1209"},{"INCLINATION":"53.0539","CENTER_NAME":"EARTH","TLE_LINE1":"1 47659U 21012AR  22124.91668981  .00042043  00000-0  28266-2 0  9995","EPOCH":"2022-05-04T22:00:01.999584","OBJECT_ID":"2021-012AR","NORAD_CAT_ID":"47659","EPHEMERIS_TYPE":"0","TIME_SYSTEM":"UTC","REV_AT_EPOCH":"360","MEAN_ELEMENT_THEORY":"SGP4","OBJECT_TYPE":"PAYLOAD","RA_OF_ASC_NODE":"137.8931","ELEMENT_SET_NO":"999","TLE_LINE2":"2 47659  53.0539 137.8931 0001444  57.1312  78.7951 15.06374090  3603","APOAPSIS":"548.293","OBJECT_NAME":"STARLINK-2043","BSTAR":"0.00282660000000","SEMIMAJOR_AXIS":"6925.428","ECCENTRICITY":"0.00014440","CLASSIFICATION_TYPE":"U","FILE":"3429148","DECAY_DATE":null,"REF_FRAME":"TEME","PERIOD":"95.594","GP_ID":"202716370","ARG_OF_PERICENTER":"57.1312","COUNTRY_CODE":"US","PERIAPSIS":"546.293","RCS_SIZE":"LARGE","SITE":"AFETR","LAUNCH_DATE":"2021-02-16","MEAN_MOTION_DDOT":"0.0000000000000","MEAN_ANOMALY":"78.7951","MEAN_MOTION_DOT":"0.00042043","MEAN_MOTION":"15.06374090"},{"PERIOD":"95.593","REF_FRAME":"TEME","ARG_OF_PERICENTER":"44.1602","GP_ID":"202716118","DECAY_DATE":null,"FILE":"3429148","COUNTRY_CODE":"US","RCS_SIZE":"LARGE","SITE":"AFETR","PERIAPSIS":"545.785","MEAN_MOTION":"15.06380822","LAUNCH_DATE":"2021-02-16","MEAN_MOTION_DDOT":"0.0000000000000","MEAN_MOTION_DOT":"0.00048002","MEAN_ANOMALY":"311.8322","NORAD_CAT_ID":"47660","OBJECT_ID":"2021-012AS","CENTER_NAME":"EARTH","EPOCH":"2022-05-04T22:00:01.999584","TLE_LINE1":"1 47660U 21012AS  22124.91668981  .00048002  00000-0  32212-2 0  9994","INCLINATION":"53.0538","OBJECT_TYPE":"PAYLOAD","TIME_SYSTEM":"UTC","REV_AT_EPOCH":"361","MEAN_ELEMENT_THEORY":"SGP4","EPHEMERIS_TYPE":"0","ELEMENT_SET_NO":"999","RA_OF_ASC_NODE":"127.8867","CLASSIFICATION_TYPE":"U","ECCENTRICITY":"0.00021480","BSTAR":"0.00322120000000","OBJECT_NAME":"STARLINK-2044","SEMIMAJOR_AXIS":"6925.407","TLE_LINE2":"2 47660  53.0538 127.8867 0002148  44.1602 311.8322 15.06380822  3615","APOAPSIS":"548.760"},{"SITE":"AFETR","RCS_SIZE":"LARGE","PERIAPSIS":"546.059","MEAN_ANOMALY":"310.6548","MEAN_MOTION_DDOT":"0.0000000000000","MEAN_MOTION_DOT":"0.00006265","LAUNCH_DATE":"2021-02-16","MEAN_MOTION":"15.06416833","DECAY_DATE":null,"GP_ID":"202715373","ARG_OF_PERICENTER":"49.4579","REF_FRAME":"TEME","PERIOD":"95.591","FILE":"3429148","COUNTRY_CODE":"US","ELEMENT_SET_NO":"999","RA_OF_ASC_NODE":"238.2761","ECCENTRICITY":"0.00015930","CLASSIFICATION_TYPE":"U","APOAPSIS":"548.265","TLE_LINE2":"2 47661  53.0547 238.2761 0001593  49.4579 310.6548 15.06416833 68508","SEMIMAJOR_AXIS":"6925.297","BSTAR":"0.00043890000000","OBJECT_NAME":"STARLINK-2051","OBJECT_ID":"2021-012AT","NORAD_CAT_ID":"47661","INCLINATION":"53.0547","TLE_LINE1":"1 47661U 21012AT  22124.83084870  .00006265  00000-0  43890-3 0  9995","EPOCH":"2022-05-04T19:56:25.327680","CENTER_NAME":"EARTH","REV_AT_EPOCH":"6850","MEAN_ELEMENT_THEORY":"SGP4","TIME_SYSTEM":"UTC","OBJECT_TYPE":"PAYLOAD","EPHEMERIS_TYPE":"0"}];
